{
    "links": {
        "self": "http://www.neowsapp.com/rest/v1/neo/3608670?api_key=iIulBulltgU6a56xZRHN4H3l9WmuAYTsLGpBGhQ2"
    },
    "id": "3608670",
    "neo_reference_id": "3608670",
    "name": "(2012 RW16)",
    "designation": "2012 RW16",
    "nasa_jpl_url": "http://ssd.jpl.nasa.gov/sbdb.cgi?sstr=3608670",
    "absolute_magnitude_h": 25.1,
    "estimated_diameter": {
        "kilometers": {
            "estimated_diameter_min": 0.0253837029,
            "estimated_diameter_max": 0.0567596853
        },
        "meters": {
            "estimated_diameter_min": 25.3837029364,
            "estimated_diameter_max": 56.7596852866
        },
        "miles": {
            "estimated_diameter_min": 0.0157726969,
            "estimated_diameter_max": 0.0352688224
        },
        "feet": {
            "estimated_diameter_min": 83.279867942,
            "estimated_diameter_max": 186.2194458756
        }
    },
    "is_potentially_hazardous_asteroid": false,
    "close_approach_data": [
        {
            "close_approach_date": "2012-09-15",
            "close_approach_date_full": "2012-Sep-15 23:31",
            "epoch_date_close_approach": 1347751860000,
            "relative_velocity": {
                "kilometers_per_second": "7.4035087876",
                "kilometers_per_hour": "26652.6316352298",
                "miles_per_hour": "16560.9088069015"
            },
            "miss_distance": {
                "astronomical": "0.0545999182",
                "lunar": "21.2393681798",
                "kilometers": "8168031.464894234",
                "miles": "5075379.4038150692"
            },
            "orbiting_body": "Earth"
        },
        {
            "close_approach_date": "2143-08-17",
            "close_approach_date_full": "2143-Aug-17 13:10",
            "epoch_date_close_approach": 5479103400000,
            "relative_velocity": {
                "kilometers_per_second": "13.5947965245",
                "kilometers_per_hour": "48941.2674881467",
                "miles_per_hour": "30410.2003456209"
            },
            "miss_distance": {
                "astronomical": "0.254329978",
                "lunar": "98.934361442",
                "kilometers": "38047222.98594686",
                "miles": "23641448.094952268"
            },
            "orbiting_body": "Earth"
        }
    ],
    "orbital_data": {
        "orbit_id": "7",
        "orbit_determination_date": "2017-04-06 08:48:58",
        "first_observation_date": "2012-09-15",
        "last_observation_date": "2012-10-16",
        "data_arc_in_days": 31,
        "observations_used": 55,
        "orbit_uncertainty": "7",
        "minimum_orbit_intersection": ".0531833",
        "jupiter_tisserand_invariant": "3.248",
        "epoch_osculation": "2459000.5",
        "eccentricity": ".5685725139244566",
        "semi_major_axis": "2.448798956409904",
        "inclination": "5.604969550529582",
        "ascending_node_longitude": ".5312780889350867",
        "orbital_period": "1399.677960275716",
        "perihelion_distance": "1.056479177668339",
        "perihelion_argument": "357.2460107759028",
        "aphelion_distance": "3.841118735151468",
        "perihelion_time": "2458986.366288653252",
        "mean_anomaly": "3.635219121280453",
        "mean_motion": ".2572020209056412",
        "equinox": "J2000",
        "orbit_class": {
            "orbit_class_type": "AMO",
            "orbit_class_description": "Near-Earth asteroid orbits similar to that of 1221 Amor",
            "orbit_class_range": "1.017 AU < q (perihelion) < 1.3 AU"
        }
    },
    "is_sentry_object": false
}